{
  "type": "FeatureCollection",
  "features": [
    {
      "type": "Feature",
      "properties": {
        "norad_id": 57400,
        "name": "TIANMU-1 08",
        "group": "weather",
        "lat": 38.2127589442006,
        "lon": -124.92020355984305,
        "alt_km": 478.75105394414913,
        "timestamp": "2025-12-25T22:42:16.639912+00:00",
        "meta_object_name": "TIANMU-1 08",
        "meta_object_id": "2023-101B",
        "meta_epoch": "2025-12-25T17:22:28.160256",
        "meta_mean_motion": 15.28235827,
        "meta_eccentricity": 0.0006909,
        "meta_inclination": 97.2844,
        "meta_ra_of_asc_node": 49.0828,
        "meta_arg_of_pericenter": 46.953,
        "meta_mean_anomaly": 313.2287,
        "meta_ephemeris_type": 0,
        "meta_classification_type": "U",
        "meta_norad_cat_id": 57400,
        "meta_element_set_no": 999,
        "meta_rev_at_epoch": 13513,
        "meta_bstar": 0.00026407,
        "meta_mean_motion_dot": 7.197e-05,
        "meta_mean_motion_ddot": 0,
        "tle_line1": "1 57400U 23101B   25359.72393704  .00007197  00000+0  26407-3 0  9997",
        "tle_line2": "2 57400  97.2844  49.0828 0006909  46.9530 313.2287 15.28235827135136"
      },
      "geometry": {
        "type": "Point",
        "coordinates": [
          -124.92020355984305,
          38.2127589442006
        ]
      }
    },
    {
      "type": "Feature",
      "properties": {
        "norad_id": 57401,
        "name": "TIANMU-1 09",
        "group": "weather",
        "lat": -35.232095481077984,
        "lon": -136.3738299704811,
        "alt_km": 491.4767908145068,
        "timestamp": "2025-12-25T22:42:16.639925+00:00",
        "meta_object_name": "TIANMU-1 09",
        "meta_object_id": "2023-101C",
        "meta_epoch": "2025-12-25T17:03:02.677824",
        "meta_mean_motion": 15.28271315,
        "meta_eccentricity": 0.0006182,
        "meta_inclination": 97.2802,
        "meta_ra_of_asc_node": 48.5762,
        "meta_arg_of_pericenter": 48.0665,
        "meta_mean_anomaly": 312.1101,
        "meta_ephemeris_type": 0,
        "meta_classification_type": "U",
        "meta_norad_cat_id": 57401,
        "meta_element_set_no": 999,
        "meta_rev_at_epoch": 13513,
        "meta_bstar": 0.00027805,
        "meta_mean_motion_dot": 7.59e-05,
        "meta_mean_motion_ddot": 0,
        "tle_line1": "1 57401U 23101C   25359.71044766  .00007590  00000+0  27805-3 0  9998",
        "tle_line2": "2 57401  97.2802  48.5762 0006182  48.0665 312.1101 15.28271315135132"
      },
      "geometry": {
        "type": "Point",
        "coordinates": [
          -136.3738299704811,
          -35.232095481077984
        ]
      }
    },
    {
      "type": "Feature",
      "properties": {
        "norad_id": 57402,
        "name": "TIANMU-1 10",
        "group": "weather",
        "lat": 26.603474676701595,
        "lon": 45.99521990014119,
        "alt_km": 474.9439393361763,
        "timestamp": "2025-12-25T22:42:16.639935+00:00",
        "meta_object_name": "TIANMU-1 10",
        "meta_object_id": "2023-101D",
        "meta_epoch": "2025-12-25T17:52:24.425760",
        "meta_mean_motion": 15.28264345,
        "meta_eccentricity": 0.0007888,
        "meta_inclination": 97.2882,
        "meta_ra_of_asc_node": 49.4734,
        "meta_arg_of_pericenter": 45.2466,
        "meta_mean_anomaly": 314.9415,
        "meta_ephemeris_type": 0,
        "meta_classification_type": "U",
        "meta_norad_cat_id": 57402,
        "meta_element_set_no": 999,
        "meta_rev_at_epoch": 13513,
        "meta_bstar": 0.00029154,
        "meta_mean_motion_dot": 7.963e-05,
        "meta_mean_motion_ddot": 0,
        "tle_line1": "1 57402U 23101D   25359.74472715  .00007963  00000+0  29154-3 0  9994",
        "tle_line2": "2 57402  97.2882  49.4734 0007888  45.2466 314.9415 15.28264345135135"
      },
      "geometry": {
        "type": "Point",
        "coordinates": [
          45.99521990014119,
          26.603474676701595
        ]
      }
    },
    {
      "type": "Feature",
      "properties": {
        "norad_id": 57490,
        "name": "FENGYUN 3F",
        "group": "weather",
        "lat": -7.826094718206332,
        "lon": -113.1815095653687,
        "alt_km": 829.375081867458,
        "timestamp": "2025-12-25T22:42:16.639945+00:00",
        "meta_object_name": "FENGYUN 3F",
        "meta_object_id": "2023-111A",
        "meta_epoch": "2025-12-25T18:26:26.068128",
        "meta_mean_motion": 14.19896971,
        "meta_eccentricity": 8.44e-05,
        "meta_inclination": 98.7066,
        "meta_ra_of_asc_node": 67.8506,
        "meta_arg_of_pericenter": 117.7711,
        "meta_mean_anomaly": 242.3551,
        "meta_ephemeris_type": 0,
        "meta_classification_type": "U",
        "meta_norad_cat_id": 57490,
        "meta_element_set_no": 999,
        "meta_rev_at_epoch": 12425,
        "meta_bstar": 5.9999e-05,
        "meta_mean_motion_dot": 8.4e-07,
        "meta_mean_motion_ddot": 0,
        "tle_line1": "1 57490U 23111A   25359.76835727  .00000084  00000+0  59999-4 0  9998",
        "tle_line2": "2 57490  98.7066  67.8506 0000844 117.7711 242.3551 14.19896971124257"
      },
      "geometry": {
        "type": "Point",
        "coordinates": [
          -113.1815095653687,
          -7.826094718206332
        ]
      }
    },
    {
      "type": "Feature",
      "properties": {
        "norad_id": 58584,
        "name": "ARKTIKA-M 2",
        "group": "weather",
        "lat": 59.753033809152264,
        "lon": -126.54449305759645,
        "alt_km": 36145.660601923584,
        "timestamp": "2025-12-25T22:42:16.639958+00:00",
        "meta_object_name": "ARKTIKA-M 2",
        "meta_object_id": "2023-198A",
        "meta_epoch": "2025-12-24T19:00:30.507264",
        "meta_mean_motion": 2.00602347,
        "meta_eccentricity": 0.6865959,
        "meta_inclination": 63.2255,
        "meta_ra_of_asc_node": 173.58,
        "meta_arg_of_pericenter": 268.0557,
        "meta_mean_anomaly": 18.8416,
        "meta_ephemeris_type": 0,
        "meta_classification_type": "U",
        "meta_norad_cat_id": 58584,
        "meta_element_set_no": 999,
        "meta_rev_at_epoch": 1482,
        "meta_bstar": 0,
        "meta_mean_motion_dot": 2.24e-06,
        "meta_mean_motion_ddot": 0,
        "tle_line1": "1 58584U 23198A   25358.79201976  .00000224  00000+0  00000+0 0  9993",
        "tle_line2": "2 58584  63.2255 173.5800 6865959 268.0557  18.8416  2.00602347 14827"
      },
      "geometry": {
        "type": "Point",
        "coordinates": [
          -126.54449305759645,
          59.753033809152264
        ]
      }
    },
    {
      "type": "Feature",
      "properties": {
        "norad_id": 58645,
        "name": "TIANMU-1 11",
        "group": "weather",
        "lat": 39.92418841043113,
        "lon": 13.12767118329952,
        "alt_km": 492.8339129574051,
        "timestamp": "2025-12-25T22:42:16.639969+00:00",
        "meta_object_name": "TIANMU-1 11",
        "meta_object_id": "2023-205A",
        "meta_epoch": "2025-12-25T17:48:11.152800",
        "meta_mean_motion": 15.24754179,
        "meta_eccentricity": 0.0007573,
        "meta_inclination": 97.3598,
        "meta_ra_of_asc_node": 19.1366,
        "meta_arg_of_pericenter": 254.5973,
        "meta_mean_anomaly": 105.4429,
        "meta_ephemeris_type": 0,
        "meta_classification_type": "U",
        "meta_norad_cat_id": 58645,
        "meta_element_set_no": 999,
        "meta_rev_at_epoch": 11107,
        "meta_bstar": 0.0002833,
        "meta_mean_motion_dot": 6.952e-05,
        "meta_mean_motion_ddot": 0,
        "tle_line1": "1 58645U 23205A   25359.74179575  .00006952  00000+0  28330-3 0  9999",
        "tle_line2": "2 58645  97.3598  19.1366 0007573 254.5973 105.4429 15.24754179111074"
      },
      "geometry": {
        "type": "Point",
        "coordinates": [
          13.12767118329952,
          39.92418841043113
        ]
      }
    },
    {
      "type": "Feature",
      "properties": {
        "norad_id": 58646,
        "name": "TIANMU-1 12",
        "group": "weather",
        "lat": -66.08469546281461,
        "lon": -177.80478595519864,
        "alt_km": 495.1299589946775,
        "timestamp": "2025-12-25T22:42:16.639982+00:00",
        "meta_object_name": "TIANMU-1 12",
        "meta_object_id": "2023-205B",
        "meta_epoch": "2025-12-25T16:53:53.705184",
        "meta_mean_motion": 15.24640592,
        "meta_eccentricity": 0.0006026,
        "meta_inclination": 97.3586,
        "meta_ra_of_asc_node": 18.9006,
        "meta_arg_of_pericenter": 232.5219,
        "meta_mean_anomaly": 127.5471,
        "meta_ephemeris_type": 0,
        "meta_classification_type": "U",
        "meta_norad_cat_id": 58646,
        "meta_element_set_no": 999,
        "meta_rev_at_epoch": 11105,
        "meta_bstar": 0.0002567,
        "meta_mean_motion_dot": 6.269e-05,
        "meta_mean_motion_ddot": 0,
        "tle_line1": "1 58646U 23205B   25359.70409381  .00006269  00000+0  25670-3 0  9992",
        "tle_line2": "2 58646  97.3586  18.9006 0006026 232.5219 127.5471 15.24640592111054"
      },
      "geometry": {
        "type": "Point",
        "coordinates": [
          -177.80478595519864,
          -66.08469546281461
        ]
      }
    }
  ]
}